STARLINK-6378           
1 57347U 23099V   26068.51867032  .00000270  00000+0  35034-4 0  9990
2 57347  43.0053 249.6660 0001438 279.9603  80.1077 15.02538811146095
QPS-SAR-8 (AMATERU-IV)  
1 60542U 24149CC  26068.70418071  .00008268  00000+0  61811-3 0  9990
2 60542  97.6699 148.7511 0003873  93.1500 267.0168 15.03026697 85328
